{"fetched_at":"2026-03-29T16:36:15Z","count":15609,"tles":[{"name":"STARLINK-11120 [DTC]","line1":"1 60042U 24112E   26087.62514446  .00002634  00000+0  26590-4 0  9997","line2":"2 60042  53.1611 173.0235 0001270 114.8498 245.2652 15.69709737103955","category":"Starlink"}]}